{
  "norad_id": 53505,
  "name": "STARLINK-4446",
  "history": [
    {
      "epoch": "2026-03-28T22:00:01.999584Z",
      "apogee_km": 400.10870152253756,
      "perigee_km": 398.2322006354834,
      "latitude_deg": 70.64407773507865,
      "longitude_deg": -102.2431714184893,
      "height_km": 410.5429721876578,
      "semi_major_axis_km": 6777.30745107901,
      "eccentricity": 0.00013844,
      "inclination_deg": 97.6036,
      "raan_deg": 211.8926,
      "arg_perigee_deg": 81.6828,
      "mean_anomaly_deg": 26.2496,
      "mean_motion_rev_day": 15.56026469
    },
    {
      "epoch": "2026-03-29T04:00:01.999584Z",
      "apogee_km": 399.551442659641,
      "perigee_km": 397.6973207456067,
      "latitude_deg": 66.30210498627726,
      "longitude_deg": -52.028472235667735,
      "height_km": 409.18835428188703,
      "semi_major_axis_km": 6776.761381702624,
      "eccentricity": 0.0001368,
      "inclination_deg": 97.6032,
      "raan_deg": 212.1597,
      "arg_perigee_deg": 75.5214,
      "mean_anomaly_deg": 351.8728,
      "mean_motion_rev_day": 15.56214549
    },
    {
      "epoch": "2026-03-30T04:00:01.999584Z",
      "apogee_km": 397.4292080255509,
      "perigee_km": 395.47135230158347,
      "latitude_deg": -82.00526444421338,
      "longitude_deg": 74.71803517561061,
      "height_km": 425.6425849042623,
      "semi_major_axis_km": 6774.587280163567,
      "eccentricity": 0.0001445,
      "inclination_deg": 97.6034,
      "raan_deg": 213.2276,
      "arg_perigee_deg": 58.8398,
      "mean_anomaly_deg": 208.5423,
      "mean_motion_rev_day": 15.5696374
    },
    {
      "epoch": "2026-03-30T06:00:02.000160Z",
      "apogee_km": 397.3042961584315,
      "perigee_km": 395.2295672103146,
      "latitude_deg": 14.01566240091136,
      "longitude_deg": -66.23517049811882,
      "height_km": 397.8962245149758,
      "semi_major_axis_km": 6774.403931684373,
      "eccentricity": 0.00015313,
      "inclination_deg": 97.6035,
      "raan_deg": 213.3165,
      "arg_perigee_deg": 57.015,
      "mean_anomaly_deg": 317.1725,
      "mean_motion_rev_day": 15.57026949
    },
    {
      "epoch": "2026-03-30T14:00:03.000384Z",
      "apogee_km": 396.18444924893174,
      "perigee_km": 394.3766241083922,
      "latitude_deg": 78.80594461565896,
      "longitude_deg": 133.55664073543812,
      "height_km": 407.7190988739169,
      "semi_major_axis_km": 6773.417536678661,
      "eccentricity": 0.00013345,
      "inclination_deg": 97.6038,
      "raan_deg": 213.6717,
      "arg_perigee_deg": 55.1373,
      "mean_anomaly_deg": 26.5434,
      "mean_motion_rev_day": 15.5736708
    }
  ]
}